DMSP 5D-3 F16 (USA 172) 
1 28054U 03048A   26190.30488821 -.00000050  00000+0 -22370-5 0  9991
2 28054  98.9886 214.2789 0008204  85.6646 334.2677 14.14484908172613
METEOSAT-9 (MSG-2)      
1 28912U 05049B   26190.18184576  .00000130  00000+0  00000+0 0  9990
2 28912   9.4083  53.9456 0002067 359.3652 344.9618  1.00269477  7219
DMSP 5D-3 F17 (USA 191) 
1 29522U 06050A   26190.30230568 -.00000023  00000+0  10446-4 0  9990
2 29522  98.7383 196.4202 0010081 359.9414   0.1756 14.14995882 15555
FENGYUN 3A              
1 32958U 08026A   26190.24961101  .00000029  00000+0  34454-4 0  9999
2 32958  98.6887 130.6705 0009823  67.2316 292.9898 14.19575691938537
GOES 14                 
1 35491U 09033A   26190.30917300 -.00000339  00000+0  00000+0 0  9992
2 35491   1.7436  82.7699 0001947  37.3857  47.1090  1.00101238  6812
DMSP 5D-3 F18 (USA 210) 
1 35951U 09057A   26190.27509476  .00000227  00000+0  14055-3 0  9990
2 35951  98.9051 170.9975 0010871 182.1980 177.9147 14.14908997862713
EWS-G2 (GOES 15)        
1 36411U 10008A   26190.17475156  .00000035  00000+0  00000+0 0  9994
2 36411   1.3349  82.5400 0005248  51.9496 278.9247  1.00267952 59857
COMS 1                  
1 36744U 10032A   26189.35480981 -.00000198  00000+0  00000+0 0  9991
2 36744   4.8563  75.1008 0011359  14.7290 313.4314  0.99169315 51294
FENGYUN 3B              
1 37214U 10059A   26190.35824818 -.00000106  00000+0 -31337-4 0  9998
2 37214  98.9609 236.4658 0023041 122.3314 249.3592 14.14845365810565
SUOMI NPP               
1 37849U 11061A   26190.26167690  .00000034  00000+0  37190-4 0  9995
2 37849  98.7956 130.9874 0000569 257.0030 103.1082 14.19521880761576
METEOSAT-10 (MSG-3)     
1 38552U 12035B   26190.28371157  .00000002  00000+0  00000+0 0  9996
2 38552   4.7210  60.9066 0001163  19.5614 308.9653  1.00269872 51075
METOP-B                 
1 38771U 12049A   26190.29236384  .00000055  00000+0  45075-4 0  9991
2 38771  98.6492 241.3493 0001073 292.2895  67.8168 14.21445293716409
INSAT-3D                
1 39216U 13038B   26190.30934634 -.00000327  00000+0  00000+0 0  9997
2 39216   1.9800  82.2636 0000503  71.6958  14.1825  1.00271431 47306
FENGYUN 3C              
1 39260U 13052A   26190.23525132  .00000055  00000+0  49007-4 0  9995
2 39260  98.4993 163.0992 0013932 324.1445  35.8794 14.15759960661685
METEOR-M 2              
1 40069U 14037A   26190.24802106  .00000353  00000+0  18055-3 0  9997
2 40069  98.5129 165.2063 0005523 345.7482  14.3539 14.21469366622452
HIMAWARI-8              
1 40267U 14060A   26190.29558601 -.00000262  00000+0  00000+0 0  9993
2 40267   0.0325 285.2264 0000822 201.2262  47.8518  1.00269694 42980
FENGYUN 2G              
1 40367U 14090A   26189.83497212 -.00000290  00000+0  00000+0 0  9996
2 40367   5.6900  72.5590 0004007 150.4757 103.7449  1.00263286 42215
METEOSAT-11 (MSG-4)     
1 40732U 15034A   26190.28553157  .00000072  00000+0  00000+0 0  9990
2 40732   3.2552  70.9728 0002251 351.7672 336.5353  1.00270014  7436
ELEKTRO-L 2             
1 41105U 15074A   26189.42539329 -.00000107  00000+0  00000+0 0  9998
2 41105   6.7437  70.2631 0000693 230.4230 124.3160  1.00273098 38717
SENTINEL-3A             
1 41335U 16011A   26190.30747698  .00000052  00000+0  39436-4 0  9992
2 41335  98.6239 257.3724 0001398  92.0212 268.1129 14.26738722541216
INSAT-3DR               
1 41752U 16054A   26190.17128253 -.00000063  00000+0  00000+0 0  9990
2 41752   0.0539  89.1802 0010539 181.2734 152.3223  1.00272060 36038
HIMAWARI-9              
1 41836U 16064A   26190.29516934  .00000000  00000+0  00000+0 0  9994
2 41836   0.0206  33.3033 0002348 146.1200 354.8366  1.00269801 35435
GOES 16                 
1 41866U 16071A   26189.97764755 -.00000077  00000+0  00000+0 0  9999
2 41866   0.3918  85.5977 0000494  81.8367   6.7563  1.00271300 35323
FENGYUN 4A              
1 41882U 16077A   26190.30821966 -.00000345  00000+0  00000+0 0  9998
2 41882   2.3750  80.0459 0008310 158.4046 283.5406  1.00271707 35155
CYGFM05                 
1 41884U 16078A   26190.16963986  .00020564  00000+0  26866-3 0  9990
2 41884  34.9558 114.9184 0007159 339.6306  20.4132 15.57650420532187
CYGFM04                 
1 41885U 16078B   26190.06995670  .00023326  00000+0  25004-3 0  9997
2 41885  34.9320  82.1387 0005197  17.4254 342.6649 15.62796366532424
CYGFM02                 
1 41886U 16078C   26190.09102842  .00029351  00000+0  27638-3 0  9991
2 41886  34.9401  75.8695 0005957  21.8700 338.2281 15.66019731532606
CYGFM01                 
1 41887U 16078D   26190.21259684  .00021464  00000+0  27290-3 0  9994
2 41887  34.9387 115.5083 0007085 333.7485  26.2879 15.58363321532146
CYGFM08                 
1 41888U 16078E   26190.13326026  .00023865  00000+0  27202-3 0  9991
2 41888  34.9424  95.0190 0007308   6.4457 353.6361 15.61202401532408
CYGFM07                 
1 41890U 16078G   26190.09099209  .00022364  00000+0  25410-3 0  9991
2 41890  34.9441  83.6235 0005628  19.0619 341.0316 15.61307182532421
CYGFM03                 
1 41891U 16078H   26190.12607137  .00023704  00000+0  26933-3 0  9991
2 41891  34.9397  85.3201 0005594   3.9834 356.0935 15.61298206532404
