OBJECT_NAME,OBJECT_ID,EPOCH,MEAN_MOTION,ECCENTRICITY,INCLINATION,RA_OF_ASC_NODE,ARG_OF_PERICENTER,MEAN_ANOMALY,EPHEMERIS_TYPE,CLASSIFICATION_TYPE,NORAD_CAT_ID,ELEMENT_SET_NO,REV_AT_EPOCH,BSTAR,MEAN_MOTION_DOT,MEAN_MOTION_DDOT
DMSP 5D-3 F16 (USA 172),2003-048A,2026-07-09T07:19:02.341344,14.14484908,.00082046,98.9886,214.2789,85.6646,334.2677,0,U,28054,999,17261,-.223696E-5,-.5E-6,0
METEOSAT-9 (MSG-2),2005-049B,2026-07-09T04:21:51.473664,1.00269477,.00020671,9.4083,53.9456,359.3652,344.9618,0,U,28912,999,721,0,.13E-5,0
DMSP 5D-3 F17 (USA 191),2006-050A,2026-07-09T07:15:19.210752,14.14995882,.00100815,98.7383,196.4202,359.9414,0.1756,0,U,29522,999,1555,.1044603E-4,-.23E-6,0
FENGYUN 3A,2008-026A,2026-07-09T05:59:26.391264,14.19575691,.00098236,98.6887,130.6705,67.2316,292.9898,0,U,32958,999,93853,.34453875E-4,.29E-6,0
GOES 14,2009-033A,2026-07-09T07:25:12.547200,1.00101238,.00019479,1.7436,82.7699,37.3857,47.1090,0,U,35491,999,681,0,-.339E-5,0
DMSP 5D-3 F18 (USA 210),2009-057A,2026-07-09T06:36:08.187264,14.14908997,.00108715,98.9051,170.9975,182.1980,177.9147,0,U,35951,999,86271,.14055408E-3,.227E-5,0
EWS-G2 (GOES 15),2010-008A,2026-07-09T04:11:38.534784,1.00267952,.00052483,1.3349,82.5400,51.9496,278.9247,0,U,36411,999,5985,0,.35E-6,0
COMS 1,2010-032A,2026-07-08T08:30:55.567584,0.99169315,.00113597,4.8563,75.1008,14.7290,313.4314,0,U,36744,999,5129,0,-.198E-5,0
FENGYUN 3B,2010-059A,2026-07-09T08:35:52.642752,14.14845365,.00230413,98.9609,236.4658,122.3314,249.3592,0,U,37214,999,81056,-.31337191E-4,-.106E-5,0
SUOMI NPP,2011-061A,2026-07-09T06:16:48.884160,14.19521880,.00005697,98.7956,130.9874,257.0030,103.1082,0,U,37849,999,76157,.3719035E-4,.34E-6,0
METEOSAT-10 (MSG-3),2012-035B,2026-07-09T06:48:32.679648,1.00269872,.00011634,4.7210,60.9066,19.5614,308.9653,0,U,38552,999,5107,0,.2E-7,0
METOP-B,2012-049A,2026-07-09T07:01:00.235776,14.21445293,.00010735,98.6492,241.3493,292.2895,67.8168,0,U,38771,999,71640,.45074536E-4,.55E-6,0
INSAT-3D,2013-038B,2026-07-09T07:25:27.523776,1.00271431,.00005037,1.9800,82.2636,71.6958,14.1825,0,U,39216,999,4730,0,-.327E-5,0
FENGYUN 3C,2013-052A,2026-07-09T05:38:45.714048,14.15759960,.00139329,98.4993,163.0992,324.1445,35.8794,0,U,39260,999,66168,.49006956E-4,.55E-6,0
METEOR-M 2,2014-037A,2026-07-09T05:57:09.019584,14.21469366,.0005523,98.5129,165.2063,345.7482,14.3539,0,U,40069,999,62245,.18054973E-3,.353E-5,0
HIMAWARI-8,2014-060A,2026-07-09T07:05:38.631264,1.00269694,.00008223,0.0325,285.2264,201.2262,47.8518,0,U,40267,999,4298,0,-.262E-5,0
FENGYUN 2G,2014-090A,2026-07-08T20:02:21.591168,1.00263286,.00040075,5.6900,72.5590,150.4757,103.7449,0,U,40367,999,4221,0,-.29E-5,0
METEOSAT-11 (MSG-4),2015-034A,2026-07-09T06:51:09.927648,1.00270014,.00022518,3.2552,70.9728,351.7672,336.5353,0,U,40732,999,743,0,.72E-6,0
ELEKTRO-L 2,2015-074A,2026-07-08T10:12:33.980256,1.00273098,.00006934,6.7437,70.2631,230.4230,124.3160,0,U,41105,999,3871,0,-.107E-5,0
SENTINEL-3A,2016-011A,2026-07-09T07:22:46.011072,14.26738722,.00013981,98.6239,257.3724,92.0212,268.1129,0,U,41335,999,54121,.3943632E-4,.52E-6,0
INSAT-3DR,2016-054A,2026-07-09T04:06:38.810592,1.00272060,.00105395,0.0539,89.1802,181.2734,152.3223,0,U,41752,999,3603,0,-.63E-6,0
HIMAWARI-9,2016-064A,2026-07-09T07:05:02.630976,1.00269801,.00023488,0.0206,33.3033,146.1200,354.8366,0,U,41836,999,3543,0,0,0
GOES 16,2016-071A,2026-07-08T23:27:48.748320,1.00271300,.00004948,0.3918,85.5977,81.8367,6.7563,0,U,41866,999,3532,0,-.77E-6,0
FENGYUN 4A,2016-077A,2026-07-09T07:23:50.178624,1.00271707,.00083106,2.3750,80.0459,158.4046,283.5406,0,U,41882,999,3515,0,-.345E-5,0
CYGFM05,2016-078A,2026-07-09T04:04:16.883904,15.57650420,.00071595,34.9558,114.9184,339.6306,20.4132,0,U,41884,999,53218,.26865791E-3,.20564E-3,0
CYGFM04,2016-078B,2026-07-09T01:40:44.258880,15.62796366,.00051977,34.9320,82.1387,17.4254,342.6649,0,U,41885,999,53242,.25003856E-3,.23326E-3,0
CYGFM02,2016-078C,2026-07-09T02:11:04.855488,15.66019731,.00059576,34.9401,75.8695,21.8700,338.2281,0,U,41886,999,53260,.27637971E-3,.29351E-3,0
CYGFM01,2016-078D,2026-07-09T05:06:08.366976,15.58363321,.00070858,34.9387,115.5083,333.7485,26.2879,0,U,41887,999,53214,.2728978E-3,.21464E-3,0
CYGFM08,2016-078E,2026-07-09T03:11:53.686464,15.61202401,.00073087,34.9424,95.0190,6.4457,353.6361,0,U,41888,999,53240,.27201879E-3,.23865E-3,0
CYGFM07,2016-078G,2026-07-09T02:11:01.716576,15.61307182,.0005628,34.9441,83.6235,19.0619,341.0316,0,U,41890,999,53242,.25410207E-3,.22364E-3,0
CYGFM03,2016-078H,2026-07-09T03:01:32.566368,15.61298206,.00055943,34.9397,85.3201,3.9834,356.0935,0,U,41891,999,53240,.26933193E-3,.23704E-3,0
